[{"OBJECT_NAME":"OBJECT D","OBJECT_ID":"2024-085D","EPOCH":"2026-03-09T22:53:13.410816","MEAN_MOTION":15.33413141,"ECCENTRICITY":0.00152451,"INCLINATION":97.3312,"RA_OF_ASC_NODE":145.3953,"ARG_OF_PERICENTER":54.9672,"MEAN_ANOMALY":305.2998,"EPHEMERIS_TYPE":0,"CLASSIFICATION_TYPE":"U","NORAD_CAT_ID":59680,"ELEMENT_SET_NO":999,"REV_AT_EPOCH":10244,"BSTAR":0.00049264705,"MEAN_MOTION_DOT":0.00015903,"MEAN_MOTION_DDOT":0},{"OBJECT_NAME":"STARLINK-35593","OBJECT_ID":"2025-236X","EPOCH":"2026-03-09T10:07:14.554272","MEAN_MOTION":15.30193624,"ECCENTRICITY":0.00012594,"INCLINATION":53.1598,"RA_OF_ASC_NODE":105.1111,"ARG_OF_PERICENTER":73.6462,"MEAN_ANOMALY":286.4677,"EPHEMERIS_TYPE":0,"CLASSIFICATION_TYPE":"U","NORAD_CAT_ID":66107,"ELEMENT_SET_NO":999,"REV_AT_EPOCH":2290,"BSTAR":0.00062980482,"MEAN_MOTION_DOT":0.00018336,"MEAN_MOTION_DDOT":0}]
